[{"OBJECT_NAME":"TRANSPORTER-16 OBJECT CF","OBJECT_ID":"2026-067CF","EPOCH":"2026-04-16T19:32:13.389504","MEAN_MOTION":14.91125635,"ECCENTRICITY":0.00026612,"INCLINATION":97.7613,"RA_OF_ASC_NODE":66.0285,"ARG_OF_PERICENTER":208.1796,"MEAN_ANOMALY":151.9279,"EPHEMERIS_TYPE":0,"CLASSIFICATION_TYPE":"U","NORAD_CAT_ID":68493,"ELEMENT_SET_NO":999,"REV_AT_EPOCH":257,"BSTAR":0.0002101618,"MEAN_MOTION_DOT":2.029e-5,"MEAN_MOTION_DDOT":0},{"OBJECT_NAME":"TRANSPORTER-16 OBJECT CG","OBJECT_ID":"2026-067CG","EPOCH":"2026-04-16T19:27:41.884416","MEAN_MOTION":14.91378168,"ECCENTRICITY":0.00012885,"INCLINATION":97.7568,"RA_OF_ASC_NODE":66.026,"ARG_OF_PERICENTER":177.6487,"MEAN_ANOMALY":182.4738,"EPHEMERIS_TYPE":0,"CLASSIFICATION_TYPE":"U","NORAD_CAT_ID":68494,"ELEMENT_SET_NO":999,"REV_AT_EPOCH":257,"BSTAR":0.00013886174,"MEAN_MOTION_DOT":1.33e-5,"MEAN_MOTION_DDOT":0},{"OBJECT_NAME":"TRANSPORTER-16 OBJECT CH","OBJECT_ID":"2026-067CH","EPOCH":"2026-04-16T19:44:23.578368","MEAN_MOTION":14.89057349,"ECCENTRICITY":0.00021304,"INCLINATION":97.7566,"RA_OF_ASC_NODE":66.0092,"ARG_OF_PERICENTER":183.0818,"MEAN_ANOMALY":177.0387,"EPHEMERIS_TYPE":0,"CLASSIFICATION_TYPE":"U","NORAD_CAT_ID":68495,"ELEMENT_SET_NO":999,"REV_AT_EPOCH":257,"BSTAR":5.6689954e-5,"MEAN_MOTION_DOT":4.8e-6,"MEAN_MOTION_DDOT":0},{"OBJECT_NAME":"TRANSPORTER-16 OBJECT CJ","OBJECT_ID":"2026-067CJ","EPOCH":"2026-04-16T20:55:10.828704","MEAN_MOTION":14.91925887,"ECCENTRICITY":0.0002875,"INCLINATION":97.7565,"RA_OF_ASC_NODE":66.0997,"ARG_OF_PERICENTER":119.2571,"MEAN_ANOMALY":240.8935,"EPHEMERIS_TYPE":0,"CLASSIFICATION_TYPE":"U","NORAD_CAT_ID":68496,"ELEMENT_SET_NO":999,"REV_AT_EPOCH":258,"BSTAR":0.00010117141,"MEAN_MOTION_DOT":9.68e-6,"MEAN_MOTION_DDOT":0},{"OBJECT_NAME":"TRANSPORTER-16 OBJECT CK","OBJECT_ID":"2026-067CK","EPOCH":"2026-04-16T22:32:08.747232","MEAN_MOTION":14.91906562,"ECCENTRICITY":0.00026676,"INCLINATION":97.7548,"RA_OF_ASC_NODE":66.1624,"ARG_OF_PERICENTER":113.7611,"MEAN_ANOMALY":246.3888,"EPHEMERIS_TYPE":0,"CLASSIFICATION_TYPE":"U","NORAD_CAT_ID":68497,"ELEMENT_SET_NO":999,"REV_AT_EPOCH":259,"BSTAR":0.00013701562,"MEAN_MOTION_DOT":1.33e-5,"MEAN_MOTION_DDOT":0},{"OBJECT_NAME":"TRANSPORTER-16 OBJECT CL","OBJECT_ID":"2026-067CL","EPOCH":"2026-04-16T14:40:32.767104","MEAN_MOTION":14.91222747,"ECCENTRICITY":7.775e-5,"INCLINATION":97.7504,"RA_OF_ASC_NODE":65.8159,"ARG_OF_PERICENTER":269.5113,"MEAN_ANOMALY":90.6016,"EPHEMERIS_TYPE":0,"CLASSIFICATION_TYPE":"U","NORAD_CAT_ID":68498,"ELEMENT_SET_NO":999,"REV_AT_EPOCH":254,"BSTAR":0.0001588855,"MEAN_MOTION_DOT":1.524e-5,"MEAN_MOTION_DDOT":0},{"OBJECT_NAME":"TRANSPORTER-16 OBJECT CM","OBJECT_ID":"2026-067CM","EPOCH":"2026-04-16T19:27:25.413120","MEAN_MOTION":14.91382375,"ECCENTRICITY":5.933e-5,"INCLINATION":97.754,"RA_OF_ASC_NODE":66.0214,"ARG_OF_PERICENTER":146.0603,"MEAN_ANOMALY":214.0653,"EPHEMERIS_TYPE":0,"CLASSIFICATION_TYPE":"U","NORAD_CAT_ID":68499,"ELEMENT_SET_NO":999,"REV_AT_EPOCH":257,"BSTAR":0.00010137655,"MEAN_MOTION_DOT":9.56e-6,"MEAN_MOTION_DDOT":0},{"OBJECT_NAME":"TRANSPORTER-16 OBJECT CN","OBJECT_ID":"2026-067CN","EPOCH":"2026-04-16T14:37:08.999616","MEAN_MOTION":14.91423088,"ECCENTRICITY":0.00013,"INCLINATION":97.7575,"RA_OF_ASC_NODE":65.8299,"ARG_OF_PERICENTER":169.9464,"MEAN_ANOMALY":190.1781,"EPHEMERIS_TYPE":0,"CLASSIFICATION_TYPE":"U","NORAD_CAT_ID":68500,"ELEMENT_SET_NO":999,"REV_AT_EPOCH":254,"BSTAR":0.0001382017,"MEAN_MOTION_DOT":1.325e-5,"MEAN_MOTION_DDOT":0},{"OBJECT_NAME":"TRANSPORTER-16 OBJECT CP","OBJECT_ID":"2026-067CP","EPOCH":"2026-04-16T14:40:48.904896","MEAN_MOTION":14.91230243,"ECCENTRICITY":0.00021388,"INCLINATION":97.7587,"RA_OF_ASC_NODE":65.8279,"ARG_OF_PERICENTER":207.4036,"MEAN_ANOMALY":152.707,"EPHEMERIS_TYPE":0,"CLASSIFICATION_TYPE":"U","NORAD_CAT_ID":68501,"ELEMENT_SET_NO":999,"REV_AT_EPOCH":254,"BSTAR":0.00018312356,"MEAN_MOTION_DOT":1.765e-5,"MEAN_MOTION_DDOT":0},{"OBJECT_NAME":"TRANSPORTER-16 OBJECT CQ","OBJECT_ID":"2026-067CQ","EPOCH":"2026-04-16T14:36:02.235744","MEAN_MOTION":14.91491278,"ECCENTRICITY":0.00015058,"INCLINATION":97.7581,"RA_OF_ASC_NODE":65.832,"ARG_OF_PERICENTER":161.4934,"MEAN_ANOMALY":198.634,"EPHEMERIS_TYPE":0,"CLASSIFICATION_TYPE":"U","NORAD_CAT_ID":68502,"ELEMENT_SET_NO":999,"REV_AT_EPOCH":254,"BSTAR":0.0001352757,"MEAN_MOTION_DOT":1.298e-5,"MEAN_MOTION_DDOT":0},{"OBJECT_NAME":"TRANSPORTER-16 OBJECT CR","OBJECT_ID":"2026-067CR","EPOCH":"2026-04-16T14:48:21.887136","MEAN_MOTION":14.90733954,"ECCENTRICITY":0.00028922,"INCLINATION":97.7527,"RA_OF_ASC_NODE":65.8128,"ARG_OF_PERICENTER":254.8379,"MEAN_ANOMALY":105.252,"EPHEMERIS_TYPE":0,"CLASSIFICATION_TYPE":"U","NORAD_CAT_ID":68503,"ELEMENT_SET_NO":999,"REV_AT_EPOCH":254,"BSTAR":0.00012380987,"MEAN_MOTION_DOT":1.161e-5,"MEAN_MOTION_DDOT":0},{"OBJECT_NAME":"TRANSPORTER-16 OBJECT CS","OBJECT_ID":"2026-067CS","EPOCH":"2026-04-16T19:21:35.744544","MEAN_MOTION":14.91748637,"ECCENTRICITY":0.00023268,"INCLINATION":97.7581,"RA_OF_ASC_NODE":66.0339,"ARG_OF_PERICENTER":136.1154,"MEAN_ANOMALY":224.025,"EPHEMERIS_TYPE":0,"CLASSIFICATION_TYPE":"U","NORAD_CAT_ID":68504,"ELEMENT_SET_NO":999,"REV_AT_EPOCH":257,"BSTAR":0.00013911435,"MEAN_MOTION_DOT":1.346e-5,"MEAN_MOTION_DDOT":0},{"OBJECT_NAME":"TRANSPORTER-16 OBJECT CT","OBJECT_ID":"2026-067CT","EPOCH":"2026-04-16T08:23:51.962208","MEAN_MOTION":14.90633536,"ECCENTRICITY":0.00037764,"INCLINATION":97.7566,"RA_OF_ASC_NODE":65.5517,"ARG_OF_PERICENTER":244.5929,"MEAN_ANOMALY":115.4899,"EPHEMERIS_TYPE":0,"CLASSIFICATION_TYPE":"U","NORAD_CAT_ID":68505,"ELEMENT_SET_NO":999,"REV_AT_EPOCH":250,"BSTAR":0.00026686327,"MEAN_MOTION_DOT":2.559e-5,"MEAN_MOTION_DDOT":0},{"OBJECT_NAME":"STARLINK-37262","OBJECT_ID":"2026-068A","EPOCH":"2026-04-16T21:58:27.257664","MEAN_MOTION":15.80901367,"ECCENTRICITY":7.484e-5,"INCLINATION":53.158,"RA_OF_ASC_NODE":317.7582,"ARG_OF_PERICENTER":89.5549,"MEAN_ANOMALY":270.5559,"EPHEMERIS_TYPE":0,"CLASSIFICATION_TYPE":"U","NORAD_CAT_ID":68508,"ELEMENT_SET_NO":999,"REV_AT_EPOCH":271,"BSTAR":0.00050620034,"MEAN_MOTION_DOT":0.0010051,"MEAN_MOTION_DDOT":0},{"OBJECT_NAME":"STARLINK-36292","OBJECT_ID":"2026-068B","EPOCH":"2026-04-16T20:26:20.201280","MEAN_MOTION":15.80946486,"ECCENTRICITY":6.639e-5,"INCLINATION":53.1577,"RA_OF_ASC_NODE":318.0706,"ARG_OF_PERICENTER":46.3486,"MEAN_ANOMALY":313.7592,"EPHEMERIS_TYPE":0,"CLASSIFICATION_TYPE":"U","NORAD_CAT_ID":68509,"ELEMENT_SET_NO":999,"REV_AT_EPOCH":270,"BSTAR":0.0010152196,"MEAN_MOTION_DOT":0.00205201,"MEAN_MOTION_DDOT":0},{"OBJECT_NAME":"STARLINK-37260","OBJECT_ID":"2026-068C","EPOCH":"2026-04-16T21:56:17.552256","MEAN_MOTION":15.80925976,"ECCENTRICITY":6.201e-5,"INCLINATION":53.158,"RA_OF_ASC_NODE":317.7487,"ARG_OF_PERICENTER":100.4126,"MEAN_ANOMALY":259.6967,"EPHEMERIS_TYPE":0,"CLASSIFICATION_TYPE":"U","NORAD_CAT_ID":68510,"ELEMENT_SET_NO":999,"REV_AT_EPOCH":271,"BSTAR":0.00063677129,"MEAN_MOTION_DOT":0.00127156,"MEAN_MOTION_DDOT":0}]
