TRANSPORTER-16 OBJECT CF
1 68493U 26067CF  26106.81404386  .00002029  00000+0  21016-3 0  9995
2 68493  97.7613  66.0285 0002661 208.1796 151.9279 14.91125635  2575
TRANSPORTER-16 OBJECT CG
1 68494U 26067CG  26106.81090144  .00001330  00000+0  13886-3 0  9999
2 68494  97.7568  66.0260 0001288 177.6487 182.4738 14.91378168  2579
TRANSPORTER-16 OBJECT CH
1 68495U 26067CH  26106.82249512  .00000480  00000+0  56690-4 0  9992
2 68495  97.7566  66.0092 0002130 183.0818 177.0387 14.89057349  2579
TRANSPORTER-16 OBJECT CJ
1 68496U 26067CJ  26106.87165311  .00000968  00000+0  10117-3 0  9996
2 68496  97.7565  66.0997 0002875 119.2571 240.8935 14.91925887  2589
TRANSPORTER-16 OBJECT CK
1 68497U 26067CK  26106.93899013  .00001330  00000+0  13702-3 0  9994
2 68497  97.7548  66.1624 0002667 113.7611 246.3888 14.91906562  2590
TRANSPORTER-16 OBJECT CL
1 68498U 26067CL  26106.61149036  .00001524  00000+0  15889-3 0  9996
2 68498  97.7504  65.8159 0000777 269.5113  90.6016 14.91222747  2543
TRANSPORTER-16 OBJECT CM
1 68499U 26067CM  26106.81071080  .00000956  00000+0  10138-3 0  9992
2 68499  97.7540  66.0214 0000593 146.0603 214.0653 14.91382375  2574
TRANSPORTER-16 OBJECT CN
1 68500U 26067CN  26106.60913194  .00001325  00000+0  13820-3 0  9995
2 68500  97.7575  65.8299 0001300 169.9464 190.1781 14.91423088  2541
TRANSPORTER-16 OBJECT CP
1 68501U 26067CP  26106.61167714  .00001765  00000+0  18312-3 0  9995
2 68501  97.7587  65.8279 0002138 207.4036 152.7070 14.91230243  2540
TRANSPORTER-16 OBJECT CQ
1 68502U 26067CQ  26106.60835921  .00001298  00000+0  13528-3 0  9992
2 68502  97.7581  65.8320 0001505 161.4934 198.6340 14.91491278  2541
TRANSPORTER-16 OBJECT CR
1 68503U 26067CR  26106.61691999  .00001161  00000+0  12381-3 0  9994
2 68503  97.7527  65.8128 0002892 254.8379 105.2520 14.90733954  2541
TRANSPORTER-16 OBJECT CS
1 68504U 26067CS  26106.80666371  .00001346  00000+0  13911-3 0  9997
2 68504  97.7581  66.0339 0002326 136.1154 224.0250 14.91748637  2572
TRANSPORTER-16 OBJECT CT
1 68505U 26067CT  26106.34990697  .00002559  00000+0  26686-3 0  9998
2 68505  97.7566  65.5517 0003776 244.5929 115.4899 14.90633536  2507
STARLINK-37262
1 68508U 26068A   26106.91559326  .00100510  00000+0  50620-3 0  9996
2 68508  53.1580 317.7582 0000748  89.5549 270.5559 15.80901367  2716
STARLINK-36292
1 68509U 26068B   26106.85162270  .00205201  00000+0  10152-2 0  9996
2 68509  53.1577 318.0706 0000663  46.3486 313.7592 15.80946486  2709
STARLINK-37260
1 68510U 26068C   26106.91409204  .00127156  00000+0  63677-3 0  9999
2 68510  53.1580 317.7487 0000620 100.4126 259.6967 15.80925976  2719
